FENGYUN 1C DEB
1 31810U 99025CGY 20093.94906006  .00000265  00000-0  81429-4 0  9997
2 31810  98.4720 136.5917 0245877 257.2531 100.1073 14.34228452672018
FENGYUN 1C DEB
1 31811U 99025CGZ 17096.57591767 +.00413111 +00000-0 +62664-2 0  9996
2 31811 098.9583 028.0060 0002219 124.2457 235.5905 15.53128870526375
FENGYUN 1C DEB
1 31812U 99025CHA 20087.47670792 +.00000367 +00000-0 +27141-3 0  9993
2 31812 098.9439 161.4286 0069650 258.6742 100.6592 14.00459878394125
FENGYUN 1C DEB
1 31813U 99025CHB 20093.75962225  .00000152  00000-0  57607-4 0  9990
2 31813  99.4844 276.1125 0153793 306.5206  52.1899 14.41341519681394
FENGYUN 1C DEB
1 31814U 99025CHC 20094.82697071 +.00000119 +00000-0 +16955-3 0  9997
2 31814 099.7992 120.1368 0235143 117.6531 244.8691 13.64256425334368
FENGYUN 1C DEB
1 31815U 99025CHD 20094.80621626 -.00000106 +00000-0 -35390-4 0  9992
2 31815 098.7390 117.0166 0059753 149.2641 211.2051 14.09802861662436
FENGYUN 1C DEB
1 31816U 99025CHE 20094.46073685  .00000284  00000-0  25553-3 0  9995
2 31816  98.8222 269.5322 0130672  61.0016 327.3842 13.87824563649616
FENGYUN 1C DEB
1 31817U 99025CHF 20094.84456771 +.00000436 +00000-0 +14248-3 0  9997
2 31817 098.9243 319.5057 0089968 195.4561 164.3876 14.41621924413162
FENGYUN 1C DEB
1 31818U 99025CHG 14136.77656486  .01021733  44160-3  34885-2 0  9995
2 31818 098.8210 120.6449 0023899 043.7571 077.9531 15.89312002377937
FENGYUN 1C DEB
1 31819U 99025CHH 20093.80930913 +.00000114 +00000-0 +63261-4 0  9992
2 31819 098.5134 124.0992 0091472 309.4145 049.8963 14.25980916670232
FENGYUN 1C DEB
1 31820U 99025CHJ 20093.85302425 +.00000468 +00000-0 +83347-4 0  9999
2 31820 098.9622 054.7267 0258808 283.3778 073.8686 14.53601494678301
FENGYUN 1C DEB
1 31821U 99025CHK 20094.65038654 +.00000219 +00000-0 +12082-3 0  9990
2 31821 098.1859 170.3575 0415608 147.2709 215.4947 13.82574104645898
FENGYUN 1C DEB
1 31823U 99025CHM 20094.42955971  .00000928  00000-0  31962-3 0  9992
2 31823  99.5460 258.5746 0056948 185.6662 174.3884 14.37798316672082
FENGYUN 1C DEB
1 31825U 99025CHP 20094.82987228 +.00000201 +00000-0 +10656-3 0  9999
2 31825 098.6924 127.7032 0177505 205.0606 154.1874 14.16062039661639
FENGYUN 1C DEB
1 31826U 99025CHQ 20093.91498906 +.00000151 +00000-0 +91694-4 0  9995
2 31826 098.6647 124.2961 0131960 045.1360 074.0645 14.14956623663727
FENGYUN 1C DEB
1 31827U 99025CHR 20087.99702331  .00000369  00000-0  30054-3 0  9990
2 31827  97.6763 354.9627 0133770 334.5232  24.9377 13.90574526649845
FENGYUN 1C DEB
1 31828U 99025CHS 20093.96096888 +.00002006 +00000-0 +58835-3 0  9995
2 31828 099.2951 359.3941 0175955 346.0113 013.6230 14.36556164285497
FENGYUN 1C DEB
1 31829U 99025CHT 20094.66218941 +.00000143 +00000-0 +14109-3 0  9996
2 31829 098.9925 339.9269 0173975 050.5437 005.9312 13.86398418653234
FENGYUN 1C DEB
1 31830U 99025CHU 20094.42209824  .00000414  00000-0  41508-3 0  9996
2 31830  99.0732 254.4751 0203073  67.9065 320.2512 13.74193086642473
FENGYUN 1C DEB
1 31831U 99025CHV 20094.30357942 +.00000963 +00000-0 +66831-3 0  9994
2 31831 097.8766 130.3645 0136675 335.6927 023.7832 13.96480852344042
FENGYUN 1C DEB
1 31832U 99025CHW 20040.18345450 +.00000739 +00000-0 +54911-3 0  9990
2 31832 097.8054 026.0639 0151796 176.7080 183.5120 13.92129531219408
FENGYUN 1C DEB
1 31833U 99025CHX 20094.52932381  .00000309  00000-0  40430-3 0  9997
2 31833  98.2425   4.7669 0331996 303.0828  53.8837 13.47160520631112
FENGYUN 1C DEB
1 31834U 99025CHY 20094.22596741 +.00000090 +00000-0 +76603-4 0  9990
2 31834 098.3153 092.9290 0171383 181.8817 178.1726 14.00095637345894
FENGYUN 1C DEB
1 31835U 99025CHZ 13135.67582413 +.00005094 +00000-0 +33563-2 0  9994
2 31835 098.3320 296.5729 0181051 214.5570 206.7154 13.94489834013997
FENGYUN 1C DEB
1 31836U 99025CJA 20094.65139416  .00000530  00000-0  39047-3 0  9990
2 31836  98.6261 158.7919 0137828 169.6899 190.7142 13.95128456653879
FENGYUN 1C DEB
1 31837U 99025CJB 20094.36365244  .00000362  00000-0  82543-4 0  9992
2 31837  98.3355 152.0977 0145185  51.0235 310.3792 14.55650346680297
FENGYUN 1C DEB
1 31838U 99025CJC 20092.34950191 +.00000259 +00000-0 +15674-3 0  9995
2 31838 098.9244 132.8915 0040650 278.1019 096.2012 14.14796659351037
FENGYUN 1C DEB
1 31839U 99025CJD 20094.26941621  .00002023  00000-0  78476-3 0  9997
2 31839  98.2968 271.6973 0384806 275.3313  80.4070 13.97358942646978
FENGYUN 1C DEB
1 31840U 99025CJE 19021.30176574 +.00000048 +00000-0 +66975-4 0  9996
2 31840 099.0991 054.0785 0096866 111.9418 249.3717 13.93009813600987
FENGYUN 1C DEB
1 31841U 99025CJF 20094.10715877  .00000584  00000-0  31419-3 0  9991
2 31841  98.4991  44.0598 0354069 329.4331  40.1175 13.88814507650487
FENGYUN 1C DEB
1 31842U 99025CJG 20094.55207042 +.00006204 +00000-0 +22212-3 0  9997
2 31842 098.1437 212.4245 0177241 150.0315 211.1206 15.15561024690984
FENGYUN 1C DEB
1 31843U 99025CJH 20094.21252989  .00000737  00000-0  56788-3 0  9991
2 31843  99.2551 237.3428 0717964 326.3938  29.3529 13.13470024624286
FENGYUN 1C DEB
1 31844U 99025CJJ 20093.98266064  .00000284  00000-0  17677-3 0  9995
2 31844 100.3138 103.3964 0114515 223.9706 135.2306 14.11513139659368
FENGYUN 1C DEB
1 31846U 99025CJL 12021.13125984 +.03229549 +16833-1 +75436-2 0  9999
2 31846 099.6413 081.8423 0026327 345.9757 014.6745 16.00532939250789
FENGYUN 1C DEB
1 31847U 99025CJM 20094.32225792 +.00000762 +00000-0 +51668-3 0  9999
2 31847 099.1441 139.2452 0097348 261.9358 097.0753 14.01126157277593
FENGYUN 1C DEB
1 31848U 99025CJN 20094.46088443  .00000447  00000-0  70725-4 0  9991
2 31848  96.7226 325.6774 0136677 199.0853 160.5208 14.69973820685535
FENGYUN 1C DEB
1 31849U 99025CJP 20094.57551429  .00020078  00000-0  67223-3 0  9993
2 31849  97.8200  14.3813 0046462 148.6389 211.7637 15.29931671689288
FENGYUN 1C DEB
1 31850U 99025CJQ 20091.60112134  .00000904  00000-0  15578-3 0  9994
2 31850  98.4709  22.4968 0295703 104.3733 259.0473 14.46198728671558
FENGYUN 1C DEB
1 31851U 99025CJR 20093.75371903  .00000759  00000-0  73436-3 0  9999
2 31851  98.8069  76.0103 0227796  74.5823 288.0365 13.71576483640578
FENGYUN 1C DEB
1 31852U 99025CJS 20094.80202859  .00002948  00000-0  52020-3 0  9998
2 31852  98.7572 293.5164 0446523 164.4025 197.1440 14.19296385651090
FENGYUN 1C DEB
1 31853U 99025CJT 12296.77196088 +.00000808 +00000-0 +56122-3 0  9996
2 31853 099.0148 272.9740 0042449 141.6565 225.0087 14.01298154287315
FENGYUN 1C DEB
1 31854U 99025CJU 20093.28600489 +.00000022 +00000-0 +42935-4 0  9998
2 31854 098.9450 126.6513 0073400 159.9376 200.4701 14.00136124401377
FENGYUN 1C DEB
1 31855U 99025CJV 20094.48310083  .00003206  00000-0  19390-3 0  9995
2 31855  96.6780 336.8709 0207479  98.0173 264.4648 14.94902897689553
FENGYUN 1C DEB
1 31856U 99025CJW 20094.38172104 +.00005504 +00000-0 +50857-3 0  9991
2 31856 098.9047 140.4873 0038493 047.4912 312.9545 14.94531528683663
FENGYUN 1C DEB
1 31857U 99025CJX 20093.42176399 +.00000802 +00000-0 +86414-3 0  9990
2 31857 096.1939 141.6512 0329447 261.3574 095.0125 13.53826091334246
FENGYUN 1C DEB
1 31858U 99025CJY 17230.91756474 +.00000093 +00000-0 +11308-3 0  9994
2 31858 097.6319 119.2854 0366565 251.2096 104.8956 13.57280047505154
FENGYUN 1C DEB
1 31859U 99025CJZ 12280.27769715  .01994718  34526-5  85229-3 0  9991
2 31859 099.0243 294.3893 0028534 045.5335 315.5062 16.21653834291766
FENGYUN 1C DEB
1 31860U 99025CKA 12298.90026915  .03478871  15382-1  12000-1 0  9999
2 31860 098.2110 326.3577 0029844 108.4322 252.5317 15.92582988295751
FENGYUN 1C DEB
1 31861U 99025CKB 20094.24356692 +.00000772 +00000-0 +10077-2 0  9999
2 31861 102.3270 235.0862 0524832 340.3421 136.1506 13.19896602392600
DIRECTV 10
1 31862U 07032A   20094.63631696 -.00000114 +00000-0 +00000-0 0  9994
2 31862 000.0120 075.2411 0000371 215.8680 027.6441 01.00271286022898
BREEZE-M DEB (TANK)
1 31863U 07032B   20094.14837655 -.00000067  00000-0  16597-4 0  9993
2 31863  45.9120 151.1734 4959450 211.5118 105.9146  5.52248307255926
BREEZE-M R/B
1 31864U 07032C   20094.55769530 +.00000129 +00000-0 +00000-0 0  9991
2 31864 021.5926 334.0517 5771828 144.5555 031.0433 02.01201625093532
CBERS 1 DEB
1 31867U 99057PS  16066.18773782 +.00214211 +00000-0 +42594-2 0  9994
2 31867 098.0259 153.1670 0013254 198.7510 161.3251 15.46057625469211
CBERS 1 DEB
1 31869U 99057PU  15086.76910660  .00567886  00000-0  62173-2 0  9993
2 31869 098.0023 100.3370 0095169 097.3211 263.9545 15.57638755413866
CBERS 1 DEB
1 31870U 99057PV  20093.66561183 +.00007810 +00000-0 +56392-3 0  9993
2 31870 098.1897 175.3504 0012134 175.0649 185.0697 15.04340767685014
CBERS 1 DEB
1 31871U 99057PW  20094.46487280  .00005598  00000-0  46286-3 0  9990
2 31871  98.2054 171.8295 0007857 205.8935 154.1894 14.99346672686993
CBERS 1 DEB
1 31872U 99057PX  20093.84682417  .00003040  00000-0  38955-3 0  9995
2 31872  98.2616 130.6047 0005416  57.1349 303.0383 14.82060747683647
CBERS 1 DEB
1 31873U 99057PY  20094.25701425  .00001275  00000-0  28339-3 0  9996
2 31873  98.4362  85.8068 0003365 216.7342 153.5041 14.58734662678391
CBERS 1 DEB
1 31875U 99057QA  15136.14692426 +.00011234 +00000-0 +25652-2 0  9997
2 31875 098.3008 100.4452 0007171 017.3231 046.0454 14.55891281419071
CBERS 1 DEB
1 31876U 99057QB  20094.69801500 +.00001596 +00000-0 +32045-3 0  9997
2 31876 098.3926 080.5056 0009728 221.1048 138.9421 14.63058816342540
FENGYUN 1C DEB
1 31877U 99025CKC 20094.61637117  .00000369  00000-0  58992-4 0  9993
2 31877  99.0468 243.8443 0181004 317.5026  41.2282 14.69221000683270
FENGYUN 1C DEB
1 31878U 99025CKD 20094.61786566 +.00000547 +00000-0 +11842-3 0  9997
2 31878 099.4548 038.7628 0140574 057.0016 304.4598 14.57362897676499
FENGYUN 1C DEB
1 31879U 99025CKE 20094.00889480 +.00000061 +00000-0 +32978-4 0  9995
2 31879 099.6995 030.5462 0226584 263.5798 093.9540 14.36435955333110
FENGYUN 1C DEB
1 31880U 99025CKF 20094.42544360 +.00000217 +00000-0 +21944-3 0  9991
2 31880 100.0375 087.4191 0135163 190.4616 169.3718 13.85287161341605
